NORAD_CAT_ID,OBJECT_NAME,OBJECT_TYPE,EPOCH,MEAN_MOTION,ECCENTRICITY,INCLINATION,RA_OF_ASC_NODE,ARG_OF_PERICENTER,MEAN_ANOMALY,BSTAR,MEAN_MOTION_DOT,MEAN_MOTION_DDOT,TLE_LINE0,TLE_LINE1,TLE_LINE2,SEMIMAJOR_AXIS,PERIOD,APOGEE,PERIGEE,DECAYED
51978.0,STARLINK-3666,PAYLOAD,2024-04-25 12:59:30,15.08831426,0.0001436,53.2172,225.9138,105.6338,254.4813,2.332e-05,8.3e-07,0.0,0 STARLINK-3666,1 51978U 22025Y   24116.54132161  .00000083  00000-0  23320-4 0  9993,2 51978  53.2172 225.9138 0001436 105.6338 254.4813 15.08831426117927,6917.907,95.438,540.765,538.778,0.0
51978.0,STARLINK-3666,PAYLOAD,2024-04-26 12:50:17,15.088174,0.0001191,53.2167,221.452,106.2554,253.8569,0.00048425,7.423e-05,0.0,0 STARLINK-3666,1 51978U 22025Y   24117.53491908  .00007423  00000-0  48425-3 0  9997,2 51978  53.2167 221.4520 0001191 106.2554 253.8569 15.08817400119167,6917.949,95.439,540.638,538.991,0.0
51978.0,STARLINK-3666,PAYLOAD,2024-04-26 14:25:40,15.08817584,0.0001069,53.217,221.1548,105.2475,254.8635,0.0005517,8.498e-05,0.0,0 STARLINK-3666,1 51978U 22025Y   24117.60115854  .00008498  00000-0  55170-3 0  9996,2 51978  53.2170 221.1548 0001069 105.2475 254.8635 15.08817584118081,6917.949,95.439,540.553,539.074,0.0
51978.0,STARLINK-3666,PAYLOAD,2024-04-26 16:01:02,15.08849454,0.0001414,53.2173,220.8581,106.0407,254.0741,0.00018248,2.618e-05,0.0,0 STARLINK-3666,1 51978U 22025Y   24117.66738660  .00002618  00000-0  18248-3 0  9991,2 51978  53.2173 220.8581 0001414 106.0407 254.0741 15.08849454119188,6917.851,95.437,540.695,538.738,0.0
51978.0,STARLINK-3666,PAYLOAD,2024-04-27 12:41:04,15.08827249,0.0001324,53.215,216.9961,109.7523,250.3612,9.3511e-05,1.2e-05,0.0,0 STARLINK-3666,1 51978U 22025Y   24118.52852266  .00001200  00000-0  93511-4 0  9999,2 51978  53.2150 216.9961 0001324 109.7523 250.3612 15.08827249119319,6917.919,95.438,540.7,538.868,0.0
51978.0,STARLINK-3666,PAYLOAD,2024-04-27 14:16:26,15.08840812,0.0001377,53.2171,216.6956,100.2383,259.8765,0.00015607,2.197e-05,0.0,0 STARLINK-3666,1 51978U 22025Y   24118.59475376  .00002197  00000-0  15607-3 0  9994,2 51978  53.2171 216.6956 0001377 100.2383 259.8765 15.08840812118235,6917.878,95.438,540.695,538.79,0.0
51978.0,STARLINK-3666,PAYLOAD,2024-04-27 23:48:44,15.08853935,0.0001543,53.2178,214.9129,81.7098,278.4069,0.00021284,3.102e-05,0.0,0 STARLINK-3666,1 51978U 22025Y   24118.99218421  .00003102  00000-0  21284-3 0  9999,2 51978  53.2178 214.9129 0001543  81.7098 278.4069 15.08853935119387,6917.838,95.437,540.77,538.635,0.0
51978.0,STARLINK-3666,PAYLOAD,2024-04-28 12:31:51,15.08825325,0.0001389,53.2155,212.5348,86.1906,273.9245,-0.00030624,-5.156e-05,0.0,0 STARLINK-3666,1 51978U 22025Y   24119.52212246 -.00005156  00000-0 -30624-3 0  9999,2 51978  53.2155 212.5348 0001389  86.1906 273.9245 15.08825325119461,6917.925,95.438,540.751,538.829,0.0
51978.0,STARLINK-3666,PAYLOAD,2024-04-29 12:22:37,15.08840346,0.0001296,53.216,208.0732,89.2916,270.8225,0.00010064,1.314e-05,0.0,0 STARLINK-3666,1 51978U 22025Y   24120.51571652  .00001314  00000-0  10064-3 0  9995,2 51978  53.2160 208.0732 0001296  89.2916 270.8225 15.08840346119617,6917.879,95.438,540.641,538.848,0.0
51978.0,STARLINK-3666,PAYLOAD,2024-04-30 05:51:52,15.08822114,0.0001145,53.2175,204.8028,84.6581,275.4542,0.00028312,4.219e-05,0.0,0 STARLINK-3666,1 51978U 22025Y   24121.24436225  .00004219  00000-0  28312-3 0  9994,2 51978  53.2175 204.8028 0001145  84.6581 275.4542 15.08822114119723,6917.935,95.439,540.592,539.008,0.0
51978.0,STARLINK-3666,PAYLOAD,2024-04-30 12:13:25,15.08830481,0.0001319,53.2169,203.6119,86.2508,273.8635,0.00013225,1.817e-05,0.0,0 STARLINK-3666,1 51978U 22025Y   24121.50932234  .00001817  00000-0  13225-3 0  9992,2 51978  53.2169 203.6119 0001319  86.2508 273.8635 15.08830481118678,6917.909,95.438,540.687,538.862,0.0
51978.0,STARLINK-3666,PAYLOAD,2024-05-01 05:42:39,15.08838211,0.0001342,53.2165,200.3408,88.322,271.7926,6.0454e-05,6.74e-06,0.0,0 STARLINK-3666,1 51978U 22025Y   24122.23795983  .00000674  00000-0  60454-4 0  9998,2 51978  53.2165 200.3408 0001342  88.3220 271.7926 15.08838211119871,6917.886,95.438,540.679,538.822,0.0
51978.0,STARLINK-3666,PAYLOAD,2024-05-01 21:36:30,15.08845066,0.0001391,53.2168,197.3674,88.4452,271.67,0.00011243,1.502e-05,0.0,0 STARLINK-3666,1 51978U 22025Y   24122.90035286  .00001502  00000-0  11243-3 0  9997,2 51978  53.2168 197.3674 0001391  88.4452 271.6700 15.08845066118881,6917.865,95.437,540.692,538.768,0.0
51978.0,STARLINK-3666,PAYLOAD,2024-05-02 11:54:59,15.08828538,0.0001501,53.2168,194.6961,105.5301,254.5857,1.4738e-05,-5.3e-07,0.0,0 STARLINK-3666,1 51978U 22025Y   24123.49652735 -.00000053  00000-0  14738-4 0  9990,2 51978  53.2168 194.6961 0001501 105.5301 254.5857 15.08828538120068,6917.915,95.438,540.819,538.742,0.0
51978.0,STARLINK-3666,PAYLOAD,2024-05-03 05:24:13,15.08902414,0.0001038,53.2167,191.423,109.7445,250.3659,-0.00083066,-0.00013506,0.0,0 STARLINK-3666,1 51978U 22025Y   24124.22515399 -.00013506  00000-0 -83066-3 0  9993,2 51978  53.2167 191.4230 0001038 109.7445 250.3659 15.08902414120173,6917.69,95.434,540.273,538.837,0.0
51978.0,STARLINK-3666,PAYLOAD,2024-05-03 13:21:09,15.08840441,0.000144,53.2171,189.9373,102.6308,257.4845,-1.9008e-05,-5.9e-06,0.0,0 STARLINK-3666,1 51978U 22025Y   24124.55636266 -.00000590  00000-0 -19008-4 0  9991,2 51978  53.2171 189.9373 0001440 102.6308 257.4845 15.08840441120227,6917.879,95.438,540.74,538.748,0.0
51978.0,STARLINK-3666,PAYLOAD,2024-05-03 21:18:05,15.08836901,0.0001325,53.2164,188.4486,86.546,273.5684,0.00013486,1.859e-05,0.0,0 STARLINK-3666,1 51978U 22025Y   24124.88755897  .00001859  00000-0  13486-3 0  9999,2 51978  53.2164 188.4486 0001325  86.5460 273.5684 15.08836901119188,6917.89,95.438,540.671,538.838,0.0
51978.0,STARLINK-3666,PAYLOAD,2024-05-04 03:39:38,15.08813261,0.0001031,53.2166,187.2597,103.986,256.1247,0.00039404,5.984e-05,0.0,0 STARLINK-3666,1 51978U 22025Y   24125.15252612  .00005984  00000-0  39404-3 0  9998,2 51978  53.2166 187.2597 0001031 103.9860 256.1247 15.08813261120315,6917.962,95.439,540.54,539.114,0.0
51978.0,STARLINK-3666,PAYLOAD,2024-05-05 03:30:25,15.08838708,0.0001419,53.2164,182.7978,80.2861,279.8291,7.319e-05,8.77e-06,0.0,0 STARLINK-3666,1 51978U 22025Y   24126.14612494  .00000877  00000-0  73190-4 0  9993,2 51978  53.2164 182.7978 0001419  80.2861 279.8291 15.08838708120464,6917.884,95.438,540.731,538.768,0.0
51978.0,STARLINK-3666,PAYLOAD,2024-05-05 11:27:20,15.08841508,0.0001359,53.2162,181.3114,79.499,280.6155,7.7876e-05,9.52e-06,0.0,0 STARLINK-3666,1 51978U 22025Y   24126.47732334  .00000952  00000-0  77876-4 0  9994,2 51978  53.2162 181.3114 0001359  79.4990 280.6155 15.08841508119420,6917.876,95.437,540.681,538.801,0.0
51978.0,STARLINK-3666,PAYLOAD,2024-05-05 20:59:39,15.08846915,0.0001344,53.216,179.5274,79.5657,280.5487,6.1258e-05,6.87e-06,0.0,0 STARLINK-3666,1 51978U 22025Y   24126.87475914  .00000687  00000-0  61258-4 0  9998,2 51978  53.2160 179.5274 0001344  79.5657 280.5487 15.08846915119489,6917.859,95.437,540.654,538.794,0.0
51978.0,STARLINK-3666,PAYLOAD,2024-05-06 09:42:44,15.08837806,0.0001242,53.2158,177.1478,86.8234,273.29,4.9178e-05,4.95e-06,0.0,0 STARLINK-3666,1 51978U 22025Y   24127.40467647  .00000495  00000-0  49178-4 0  9996,2 51978  53.2158 177.1478 0001242  86.8234 273.2900 15.08837806119562,6917.887,95.438,540.611,538.893,0.0
51978.0,STARLINK-3666,PAYLOAD,2024-05-06 20:50:26,15.08837347,0.0001261,53.2155,175.066,86.6734,273.4403,-2.7229e-06,-3.31e-06,0.0,0 STARLINK-3666,1 51978U 22025Y   24127.86835790 -.00000331  00000-0 -27229-5 0  9999,2 51978  53.2155 175.0660 0001261  86.6734 273.4403 15.08837347120723,6917.888,95.438,540.626,538.881,0.0
51978.0,STARLINK-3666,PAYLOAD,2024-05-07 09:33:31,15.08837364,0.0001282,53.2158,172.6872,85.706,274.4079,-4.7006e-05,-1.036e-05,0.0,0 STARLINK-3666,1 51978U 22025Y   24128.39828007 -.00001036  00000-0 -47006-4 0  9998,2 51978  53.2158 172.6872 0001282  85.7060 274.4079 15.08837364119715,6917.888,95.438,540.64,538.867,0.0
51978.0,STARLINK-3666,PAYLOAD,2024-05-08 12:35:04,15.08831369,0.0001297,53.2155,167.6324,87.7379,272.3761,5.8648e-05,6.45e-06,0.0,0 STARLINK-3666,1 51978U 22025Y   24129.52435858  .00000645  00000-0  58648-4 0  9999,2 51978  53.2155 167.6324 0001297  87.7379 272.3761 15.08831369120973,6917.907,95.438,540.669,538.875,0.0
51978.0,STARLINK-3666,PAYLOAD,2024-05-09 09:15:05,15.08829566,0.0001277,53.2154,163.7662,86.385,273.7289,7.6819e-05,9.35e-06,0.0,0 STARLINK-3666,1 51978U 22025Y   24130.38548494  .00000935  00000-0  76819-4 0  9998,2 51978  53.2154 163.7662 0001277  86.3850 273.7289 15.08829566120012,6917.912,95.438,540.661,538.894,0.0
51978.0,STARLINK-3666,PAYLOAD,2024-05-10 02:44:20,15.08835672,0.0001234,53.2151,160.4948,84.908,275.2053,7.7354e-05,9.43e-06,0.0,0 STARLINK-3666,1 51978U 22025Y   24131.11412598  .00000943  00000-0  77354-4 0  9999,2 51978  53.2151 160.4948 0001234  84.9080 275.2053 15.08835672121216,6917.894,95.438,540.612,538.905,0.0
51978.0,STARLINK-3666,PAYLOAD,2024-05-10 09:06:00,15.08735656,0.0001228,53.2149,159.3059,68.0349,292.0773,-0.00078342,-0.00012698,0.0,0 STARLINK-3666,1 51978U 22025Y   24131.37917117 -.00012698  00000-0 -78342-3 0  9993,2 51978  53.2149 159.3059 0001228  68.0349 292.0773 15.08735656121258,6918.199,95.444,540.914,539.215,0.0
51978.0,STARLINK-3666,PAYLOAD,2024-05-10 18:38:11,15.08842675,0.000123,53.2154,157.5219,87.7242,272.3891,0.0001259,1.717e-05,0.0,0 STARLINK-3666,1 51978U 22025Y   24131.77652227  .00001717  00000-0  12590-3 0  9996,2 51978  53.2154 157.5219 0001230  87.7242 272.3891 15.08842675121314,6917.872,95.437,540.588,538.886,0.0
51978.0,STARLINK-3666,PAYLOAD,2024-05-11 18:28:58,15.08854935,0.0001303,53.214,153.0602,87.761,272.3532,0.00028182,4.202e-05,0.0,0 STARLINK-3666,1 51978U 22025Y   24132.77011722  .00004202  00000-0  28182-3 0  9992,2 51978  53.2140 153.0602 0001303  87.7610 272.3532 15.08854935120375,6917.835,95.437,540.601,538.798,0.0
